KUIPER-00016            
1 63732U 25088J   25235.91670139  .00032455  00000+0  42753-2 0  9998
2 63732  51.8972 266.1472 0011208 135.4837 231.1889 14.79799719  5523
KUIPER-00018            
1 63733U 25088K   25233.42756921 -.00114734  00000+0 -66389-2 0  9991
2 63733  51.8777 268.7819 0010861 133.8831 226.3044 15.12213961 17799
KUIPER-00019            
1 63734U 25088L   25235.91670139 -.01356503  00000+0 -88261-1 0  9999
2 63734  51.8783 256.0286 0008583 157.8240 303.9819 15.10496386  5154
KUIPER-00020            
1 63735U 25088M   25235.91670139 -.00021887  00000+0 -16922-2 0  9999
2 63735  51.8894 258.6698 0007781 156.2910   1.3198 15.00700441  2907
KUIPER-00021            
1 63736U 25088N   25235.91670139 -.00024988  00000+0 -20173-2 0  9998
2 63736  51.8831 259.5128 0005472 138.7237  47.0717 14.99143169  4258
KUIPER-00023            
1 63737U 25088P   25235.91670139  .00018699  00000+0  17126-2 0  9993
2 63737  51.8902 260.6996 0009502 144.2071 195.2243 14.94926667  5517
KUIPER-00024            
1 63738U 25088Q   25235.91670139 -.00818951  00000+0 -37500-1 0  9992
2 63738  51.8804 252.9934 0002437 121.7358 333.8559 15.22720001  5609
KUIPER-00025            
1 63739U 25088R   25235.91670139 -.01756690  00000+0 -12749+0 0  9991
2 63739  51.8849 257.4657 0009551 136.0784 247.3091 15.06829197  5515
